BEIJING-3B              
1 53587U 22103A   22249.08612995  .00001968  00000+0  22331-3 0  9992
2 53587  97.9412 317.7098 0014103 217.9333 142.0914 14.87433834  1933
STARLINK-4691           
1 53588U 22104A   22249.16667824 -.01193310  00000+0 -74022-2 0  9993
2 53588  53.2174 243.3304 0003218   9.3844 148.4093 15.78992736  1450
STARLINK-4673           
1 53589U 22104B   22249.16667824 -.01193707  00000+0 -73781-2 0  9995
2 53589  53.2175 243.3247 0003250   8.3768 151.7630 15.79071689  1458
STARLINK-4689           
1 53590U 22104C   22249.16667824 -.01193585  00000+0 -73993-2 0  9996
2 53590  53.2174 243.3294 0003218   8.6686 149.6085 15.79006959  1455
STARLINK-4674           
1 53591U 22104D   22249.16667824 -.01193624  00000+0 -73957-2 0  9991
2 53591  53.2175 243.3277 0003248   8.3902 150.3946 15.79017985  1455
STARLINK-4672           
1 53592U 22104E   22249.16667824 -.01193683  00000+0 -73893-2 0  9996
2 53592  53.2175 243.3275 0003284   8.0525 151.1705 15.79037619  1450
STARLINK-4671           
1 53593U 22104F   22249.16667824 -.01193619  00000+0 -73836-2 0  9993
2 53593  53.2175 243.3260 0003174   9.1079 150.5736 15.79054650  1450
STARLINK-4681           
1 53594U 22104G   22249.16667824 -.01193782  00000+0 -73665-2 0  9995
2 53594  53.2175 243.3240 0003208   9.0507 151.9850 15.79108158  1457
STARLINK-4684           
1 53595U 22104H   22249.25001157 -.01360329  00000+0 -84130-2 0  9999
2 53595  53.2172 242.9084 0002484   4.2421 270.2748 15.78983507  1889
STARLINK-4668           
1 53596U 22104J   22249.16667824 -.01193767  00000+0 -73499-2 0  9995
2 53596  53.2175 243.3211 0003117  10.0366 152.3763 15.79158314  1458
STARLINK-4682           
1 53597U 22104K   22249.16667824 -.01193729  00000+0 -73610-2 0  9999
2 53597  53.2175 243.3225 0003189   8.9728 152.5324 15.79123616  1453
STARLINK-4676           
1 53598U 22104L   22249.16667824 -.01193481  00000+0 -73393-2 0  9993
2 53598  53.2175 243.3194 0002662  15.3135 148.0308 15.79189865  1458
STARLINK-4665           
1 53599U 22104M   22248.83334491  .00180575  22526-4  66100-3 0  9996
2 53599  53.2164 244.9134 0028136  68.2852  31.7502 15.87382394  1304
STARLINK-4677           
1 53600U 22104N   22249.25001157 -.01143340  00000+0 -70663-2 0  9994
2 53600  53.2172 242.9013 0002516   8.7086 269.5654 15.78968444  1880
STARLINK-4675           
1 53601U 22104P   22249.16667824 -.01193835  00000+0 -73446-2 0  9990
2 53601  53.2175 243.3199 0003228   8.5982 154.2821 15.79173931  1457
STARLINK-4648           
1 53602U 22104Q   22249.16667824 -.01193961  00000+0 -73167-2 0  9991
2 53602  53.2175 243.3157 0003271   8.6474 156.5075 15.79258923  1458
STARLINK-4692           
1 53603U 22104R   22249.16667824 -.01193703  00000+0 -73212-2 0  9997
2 53603  53.2175 243.3165 0003259   9.9285 154.7843 15.79240375  1453
STARLINK-4690           
1 53604U 22104S   22249.16667824 -.01194026  00000+0 -73060-2 0  9998
2 53604  53.2175 243.3140 0003250   8.3964 157.6696 15.79292436  1458
STARLINK-4693           
1 53605U 22104T   22249.16667824 -.01193834  00000+0 -73337-2 0  9992
2 53605  53.2175 243.3181 0003152   9.3511 154.4449 15.79207344  1459
STARLINK-4590           
1 53606U 22104U   22249.16667824 -.01193546  00000+0 -72714-2 0  9991
2 53606  53.2175 243.3084 0003213  10.8260 158.0167 15.79386457  1458
STARLINK-4591           
1 53607U 22104V   22249.16667824 -.01194033  00000+0 -73132-2 0  9999
2 53607  53.2175 243.3146 0003214   8.9526 156.6926 15.79271607  1459
STARLINK-4647           
1 53608U 22104W   22249.16667824 -.01194125  00000+0 -72895-2 0  9997
2 53608  53.2175 243.3115 0003222   8.6913 158.7270 15.79344081  1454
STARLINK-4660           
1 53609U 22104X   22249.16667824 -.01194073  00000+0 -73006-2 0  9995
2 53609  53.2175 243.3129 0003273   8.1764 158.3446 15.79309182  1459
STARLINK-4610           
1 53610U 22104Y   22249.16667824 -.01194125  00000+0 -72788-2 0  9991
2 53610  53.2175 243.3097 0003209   8.7856 159.5512 15.79376232  1459
STARLINK-4650           
1 53611U 22104Z   22249.16667824 -.01193102  00000+0 -72888-2 0  9997
2 53611  53.2175 243.3120 0003229  10.9105 156.0672 15.79325092  1458
STARLINK-4658           
1 53612U 22104AA  22249.16667824 -.01194259  00000+0 -72628-2 0  9994
2 53612  53.2175 243.3070 0003180   9.1653 160.5231 15.79427274  1453
STARLINK-4655           
1 53613U 22104AB  22249.16667824 -.01194184  00000+0 -72863-2 0  9993
2 53613  53.2175 243.3102 0003225   8.8153 159.1083 15.79354807  1451
STARLINK-4654           
1 53614U 22104AC  22243.58334491  .00236092  33813-4  37099-3 0  9993
2 53614  53.2179 271.4719 0075172  55.1447 253.3172 15.98021498   568
STARLINK-4653           
1 53615U 22104AD  22249.16667824  .00506438  12771-3  62338-3 0  9990
2 53615  53.2162 242.7101 0065265  75.0121  21.3926 16.02912692  1460
STARLINK-4605           
1 53616U 22104AE  22248.83334491 -.01373066  53488-3 -42899-2 0  9996
2 53616  53.2176 244.6074 0028922  71.3554 182.0413 15.90141556  1302
STARLINK-4601           
1 53617U 22104AF  22249.16667824 -.01194277  00000+0 -72575-2 0  9990
2 53617  53.2175 243.3058 0003224   8.9529 161.1969 15.79442919  1450
STARLINK-4604           
1 53618U 22104AG  22249.16667824 -.01193188  00000+0 -72282-2 0  9996
2 53618  53.2175 243.3025 0003168  11.8014 160.1506 15.79509359  1441
STARLINK-4609           
1 53619U 22104AH  22249.16667824 -.01193383  00000+0 -72452-2 0  9993
2 53619  53.2175 243.3048 0003195  11.2204 159.3566 15.79461907  1455
STARLINK-4615           
1 53620U 22104AJ  22249.16667824 -.01194421  00000+0 -72244-2 0  9998
2 53620  53.2175 243.3008 0003231   8.5647 164.2729 15.79545175  1450
STARLINK-4608           
1 53621U 22104AK  22249.16667824 -.01194001  00000+0 -72389-2 0  9993
2 53621  53.2175 243.3030 0003265  10.0972 161.4099 15.79492518  1453
STARLINK-4568           
1 53622U 22104AL  22249.16667824 -.01194513  00000+0 -72132-2 0  9998
2 53622  53.2175 243.2990 0003219   8.9106 164.8056 15.79580917  1453
STARLINK-4573           
1 53623U 22104AM  22249.16667824 -.01194275  00000+0 -72290-2 0  9999
2 53623  53.2175 243.3012 0003260   8.8865 163.5050 15.79527958  1453
STARLINK-4596           
1 53624U 22104AN  22249.16667824 -.01193611  00000+0 -72033-2 0  9998
2 53624  53.2175 243.2981 0003223  10.9846 163.2224 15.79592260  1458
STARLINK-4603           
1 53625U 22104AP  22249.16667824 -.01194319  00000+0 -72180-2 0  9998
2 53625  53.2175 243.2994 0003230   9.9855 163.2973 15.79562351  1458
STARLINK-4554           
1 53626U 22104AQ  22249.16667824 -.01194570  00000+0 -71928-2 0  9997
2 53626  53.2175 243.2954 0003208   8.7802 166.7638 15.79643747  1454
STARLINK-4595           
1 53627U 22104AR  22249.16667824 -.01194513  00000+0 -72030-2 0  9990
2 53627  53.2175 243.2967 0003216   8.7085 165.9277 15.79611696  1459
STARLINK-4600           
1 53628U 22104AS  22249.16667824 -.01194693  00000+0 -71812-2 0  9997
2 53628  53.2175 243.2937 0003293   7.9596 168.4521 15.79680133  1452
STARLINK-4602           
1 53629U 22104AT  22249.16667824 -.01194625  00000+0 -71982-2 0  9991
2 53629  53.2175 243.2959 0003281   8.1001 166.9917 15.79627585  1452
STARLINK-4598           
1 53630U 22104AU  22249.16667824 -.01194654  00000+0 -71769-2 0  9998
2 53630  53.2175 243.2928 0003205   8.8002 168.0875 15.79693526  1458
STARLINK-4599           
1 53631U 22104AV  22249.16667824 -.01194603  00000+0 -71874-2 0  9990
2 53631  53.2175 243.2941 0003216   8.6946 167.2953 15.79660606  1452
STARLINK-4606           
1 53632U 22104AW  22249.16667824 -.01194553  00000+0 -71649-2 0  9995
2 53632  53.2175 243.2911 0003176   9.6869 168.0809 15.79728168  1457
STARLINK-4593           
1 53633U 22104AX  22249.16667824 -.01194698  00000+0 -71720-2 0  9996
2 53633  53.2175 243.2914 0003218   8.6775 168.6668 15.79709082  1456
STARLINK-4592           
1 53634U 22104AY  22248.83334491 -.01180685  00000+0 -67832-2 0  9991
2 53634  53.2173 244.9549 0003739  21.9189  59.4269 15.80619453  1304
STARLINK-4587           
1 53635U 22104AZ  22249.16667824 -.01194762  00000+0 -71606-2 0  9993
2 53635  53.2175 243.2897 0003156   9.4727 168.7339 15.79745722  1452
STARLINK-4586           
1 53636U 22104BA  22248.83334491 -.01181372  00000+0 -67774-2 0  9992
2 53636  53.2173 244.9533 0003658  20.5015  61.6943 15.80653034  1309
STARLINK-4396           
1 53637U 22104BB  22249.16667824 -.01194831  00000+0 -71499-2 0  9992
2 53637  53.2175 243.2879 0003224   8.6069 170.4934 15.79778649  1455
STARLINK-4594           
1 53638U 22104BC  22249.16667824 -.01194910  00000+0 -71334-2 0  9999
2 53638  53.2175 243.2859 0003227   8.5602 171.8575 15.79830288  1453
STARLINK-4422           
1 53639U 22104BD  22249.16667824 -.01194880  00000+0 -71384-2 0  9991
2 53639  53.2175 243.2862 0003235   8.4920 171.4750 15.79814376  1450
STARLINK-4597           
1 53640U 22104BE  22248.83334491 -.01177437  00000+0 -67350-2 0  9994
2 53640  53.2173 244.9508 0003973  27.1960  56.2489 15.80702936  1309
STARLINK-4588           
1 53641U 22104BF  22248.83334491 -.01177013  00000+0 -67274-2 0  9990
2 53641  53.2173 244.9492 0004104  26.7054  57.1910 15.80716591  1309
FALCON 9 DEB            
1 53642U 22104BG  22248.58710208  .00734416  27419-3  84113-3 0  9999
2 53642  53.2186 245.6945 0064716  74.4312 286.3853 16.04046935  1360
FALCON 9 DEB            
1 53643U 22104BH  22248.58480899  .00742880  28306-3  85076-3 0  9999
2 53643  53.2164 245.6757 0060760  75.6087 285.1681 16.04537756  1367
FALCON 9 DEB            
1 53644U 22104BJ  22248.39222484  .00776949  31629-3  84183-3 0  9996
2 53644  53.2162 246.5993 0059204  70.0396 290.7001 16.05539412  1338
FALCON 9 DEB            
1 53645U 22104BK  22248.39132472  .00788246  11476-4  84071-3 0  9992
2 53645  53.2169 246.5926 0059046  71.4768 289.2669 16.05711924  1348
